GLOBALSTAR M075         
1 37192U 10054E   25351.73634080 -.00000091  00000+0  72174-4 0  9994
2 37192  51.9972 342.6695 0000324  70.0279 101.0008 12.62270606699024
GLOBALSTAR M073         
1 37193U 10054F   25353.15779612 -.00000062  00000+0  23231-3 0  9991
2 37193  52.0056 252.3061 0000966  51.8322  99.4110 12.62268112701197
GLOBALSTAR M083         
1 37739U 11033A   25353.01118199 -.00000071  00000+0  18044-3 0  9993
2 37739  51.9835 201.2266 0000984  70.9600  75.6857 12.62265837670197
GLOBALSTAR M088         
1 37740U 11033B   25353.27254745 -.00000126  00000+0 -12191-3 0  9990
2 37740  52.0211 106.4202 0000904 119.6103 254.6190 12.62271007665779
GLOBALSTAR M091         
1 37741U 11033C   25352.68399147 -.00000091  00000+0  73821-4 0  9999
2 37741  52.0006  71.4450 0000592 135.5764  22.0681 12.62268302666486
GLOBALSTAR M085         
1 37742U 11033D   25353.11224205 -.00000095  00000+0  47578-4 0  9995
2 37742  52.0145  21.2756 0000138 159.5095 205.8191 12.62267368667054
GLOBALSTAR M081         
1 37743U 11033E   25351.59018587 -.00000087  00000+0  92331-4 0  9998
2 37743  51.9980  28.5496 0000222  94.7932  71.3857 12.62270971667009
GLOBALSTAR M089         
1 37744U 11033F   25353.25898450 -.00000092  00000+0  65428-4 0  9992
2 37744  51.9954 337.6624 0000624  70.8838 302.6694 12.62262469668063
